*******************************************************************************
JPL/HORIZONS               3905 Doppler (1984 QO)          2023-Sep-04 11:26:11
Rec #:    3905 (+COV) Soln.date: 2023-Aug-23_14:35:08   # obs: 3248 (1980-2023)
 
IAU76/J2000 helio. ecliptic osc. elements (au, days, deg., period=Julian yrs):
 
  EPOCH=  2458287.5 ! 2018-Jun-18.00 (TDB)         Residual RMS= .22184
   EC= .257525043411605    QR= 1.900115566760036   TP= 2458165.7169927531
   OM= 343.3165290981848   W=  90.81194069003023   IN= 14.19152547634265
   A= 2.559164521172397    MA= 29.31861553935833   ADIST= 3.218213475584758
   PER= 4.09407            N= .240744716           ANGMOM= .0265907
   DAN= 2.39819            DDN= 2.38075            L= 74.1540253
   B= 14.1900707           MOID= .97437102         TP= 2018-Feb-16.2169927531
 
Asteroid physical parameters (km, seconds, rotational period in hours):
   GM= n.a.                RAD= 4.0105             ROTPER= 50.8
   H= 12.74                G= .150                 B-V= n.a.
                           ALBEDO= .228            STYP= n.a.

ASTEROID comments: 
1: soln ref.= JPL#43, OCC=0
2: source=ORB
*******************************************************************************


*******************************************************************************
Ephemeris / API_USER Mon Sep  4 11:26:11 2023 Pasadena, USA      / Horizons
*******************************************************************************
Target body name: 3905 Doppler (1984 QO)          {source: JPL#43}
Center body name: Solar System Barycenter (0)     {source: DE441}
Center-site name: BODY CENTER
*******************************************************************************
Start time      : A.D. 2023-Aug-12 00:00:00.0000 TDB
Stop  time      : A.D. 2023-Aug-13 00:00:00.0000 TDB
Step-size       : 2880 minutes
*******************************************************************************
Center geodetic : 0.0, 0.0, 0.0                   {E-lon(deg),Lat(deg),Alt(km)}
Center cylindric: 0.0, 0.0, 0.0                   {E-lon(deg),Dxy(km),Dz(km)}
Center radii    : (undefined)
Small perturbers: Yes                             {source: SB441-N16}
Output units    : KM-S
Calendar mode   : Mixed Julian/Gregorian
Output type     : GEOMETRIC cartesian states
Output format   : 2 (position and velocity)
Reference frame : Ecliptic of J2000.0
*******************************************************************************
Initial IAU76/J2000 heliocentric ecliptic osculating elements (au, days, deg.):
  EPOCH=  2458287.5 ! 2018-Jun-18.00 (TDB)         Residual RMS= .22184        
   EC= .257525043411605    QR= 1.900115566760036   TP= 2458165.7169927531      
   OM= 343.3165290981848   W=  90.81194069003023   IN= 14.19152547634265       
  Equivalent ICRF heliocentric cartesian coordinates (au, au/d):
   X=-1.124976163084105E+00  Y= 1.407721478666315E+00  Z= 9.634953487699508E-01
  VX=-1.201328668635003E-02 VY=-3.783727014619293E-03 VZ=-3.919190616443968E-03
Asteroid physical parameters (km, seconds, rotational period in hours):        
   GM= n.a.                RAD= 4.0105             ROTPER= 50.8                
   H= 12.74                G= .150                 B-V= n.a.                   
                           ALBEDO= .228            STYP= n.a.                  
*******************************************************************************
JDTDB
   X     Y     Z
   VX    VY    VZ
*******************************************************************************
$$SOE
2460168.500000000 = A.D. 2023-Aug-12 00:00:00.0000 TDB 
 X =-3.580961493907833E+08 Y =-2.573834056020519E+08 Z =-8.846863096537237E+07
 VX= 6.868193012828050E+00 VY=-1.380457544776060E+01 VZ=-2.837152945984490E+00
$$EOE
*******************************************************************************
 
TIME

  Barycentric Dynamical Time ("TDB" or T_eph) output was requested. This
continuous coordinate time is equivalent to the relativistic proper time
of a clock at rest in a reference frame co-moving with the solar system
barycenter but outside the system's gravity well. It is the independent
variable in the solar system relativistic equations of motion.

  TDB runs at a uniform rate of one SI second per second and is independent
of irregularities in Earth's rotation.
 
CALENDAR SYSTEM

  Mixed calendar mode was active such that calendar dates after AD 1582-Oct-15
(if any) are in the modern Gregorian system. Dates prior to 1582-Oct-5 (if any)
are in the Julian calendar system, which is automatically extended for dates
prior to its adoption on 45-Jan-1 BC.  The Julian calendar is useful for
matching historical dates. The Gregorian calendar more accurately corresponds
to the Earth's orbital motion and seasons. A "Gregorian-only" calendar mode is
available if such physical events are the primary interest.

REFERENCE FRAME AND COORDINATES

  Ecliptic at the standard reference epoch

    Reference epoch: J2000.0
    X-Y plane: adopted Earth orbital plane at the reference epoch
               Note: IAU76 obliquity of 84381.448 arcseconds wrt ICRF X-Y plane
    X-axis   : ICRF
    Z-axis   : perpendicular to the X-Y plane in the directional (+ or -) sense
               of Earth's north pole at the reference epoch.

  Symbol meaning:

    JDTDB    Julian Day Number, Barycentric Dynamical Time
      X      X-component of position vector (km)
      Y      Y-component of position vector (km)
      Z      Z-component of position vector (km)
      VX     X-component of velocity vector (km/sec)                           
      VY     Y-component of velocity vector (km/sec)                           
      VZ     Z-component of velocity vector (km/sec)                           

ABERRATIONS AND CORRECTIONS

 Geometric state vectors have NO corrections or aberrations applied.

Computations by ...

    Solar System Dynamics Group, Horizons On-Line Ephemeris System
    4800 Oak Grove Drive, Jet Propulsion Laboratory
    Pasadena, CA  91109   USA

    General site: https://ssd.jpl.nasa.gov/
    Mailing list: https://ssd.jpl.nasa.gov/email_list.html
    System news : https://ssd.jpl.nasa.gov/horizons/news.html
    User Guide  : https://ssd.jpl.nasa.gov/horizons/manual.html
    Connect     : browser        https://ssd.jpl.nasa.gov/horizons/app.html#/x
                  API            https://ssd-api.jpl.nasa.gov/doc/horizons.html
                  command-line   telnet ssd.jpl.nasa.gov 6775
                  e-mail/batch   https://ssd.jpl.nasa.gov/ftp/ssd/hrzn_batch.txt
                  scripts        https://ssd.jpl.nasa.gov/ftp/ssd/SCRIPTS
    Author      : Jon.D.Giorgini@jpl.nasa.gov
*******************************************************************************
